[
  {
    "name": "STARLINK-34545",
    "noradId": "65105",
    "line1": "1 65105U 25167AD  26174.82592268  .00012572  00000+0  38258-3 0  9995",
    "line2": "2 65105  53.1573 248.4088 0000786  90.5322 269.5770 15.34401362 49805"
  },
  {
    "name": "STARLINK-34956",
    "noradId": "65174",
    "line1": "1 65174U 25175A   26175.20990071  .00002746  00000+0  19414-3 0  9992",
    "line2": "2 65174  97.3203  46.3393 0002522  81.7645 278.3869 15.05658069 48638"
  },
  {
    "name": "STARLINK-34949",
    "noradId": "65175",
    "line1": "1 65175U 25175B   26175.20710424  .00008127  00000+0  56615-3 0  9998",
    "line2": "2 65175  97.3083  46.3630 0006049 198.0896 162.0117 15.05666722 48671"
  },
  {
    "name": "STARLINK-34707",
    "noradId": "65176",
    "line1": "1 65176U 25175C   26175.20436131  .00003078  00000+0  21713-3 0  9990",
    "line2": "2 65176  97.3210  46.3439 0003241  68.5505 291.6068 15.05652862 48663"
  },
  {
    "name": "STARLINK-34967",
    "noradId": "65177",
    "line1": "1 65177U 25175D   26175.20159133  .00006277  00000+0  43854-3 0  9999",
    "line2": "2 65177  97.3196  46.3505 0001776  87.8907 272.2524 15.05656618 48667"
  },
  {
    "name": "STARLINK-34929",
    "noradId": "65178",
    "line1": "1 65178U 25175E   26175.19882104  .00004078  00000+0  28632-3 0  9993",
    "line2": "2 65178  97.3202  46.3541 0001506  91.3581 268.7819 15.05662794 48664"
  },
  {
    "name": "STARLINK-34932",
    "noradId": "65179",
    "line1": "1 65179U 25175F   26175.19328751  .00001355  00000+0  97808-4 0  9994",
    "line2": "2 65179  97.3222  46.3604 0001567  66.8603 293.2790 15.05654729 48666"
  },
  {
    "name": "STARLINK-34862",
    "noradId": "65180",
    "line1": "1 65180U 25175G   26175.19051964  .00004916  00000+0  34430-3 0  9992",
    "line2": "2 65180  97.3206  46.3661 0002230  77.3284 282.8193 15.05660867 48664"
  },
  {
    "name": "STARLINK-34942",
    "noradId": "65181",
    "line1": "1 65181U 25175H   26175.19605300  .00002395  00000+0  16980-3 0  9991",
    "line2": "2 65181  97.3204  46.3590 0001680  91.7186 268.4234 15.05659822 48635"
  },
  {
    "name": "STARLINK-34944",
    "noradId": "65182",
    "line1": "1 65182U 25175J   26175.18775083  .00001855  00000+0  13247-3 0  9990",
    "line2": "2 65182  97.3220  46.3699 0001932  90.9964 269.1485 15.05657043 48661"
  },
  {
    "name": "STARLINK-34939",
    "noradId": "65183",
    "line1": "1 65183U 25175K   26175.18498125  .00003344  00000+0  23554-3 0  9997",
    "line2": "2 65183  97.3195  46.3736 0001928  88.5852 271.5597 15.05660047 48635"
  },
  {
    "name": "STARLINK-34947",
    "noradId": "65184",
    "line1": "1 65184U 25175L   26175.18221225  .00005323  00000+0  37244-3 0  9993",
    "line2": "2 65184  97.3177  46.3783 0002219  90.1618 269.9864 15.05664857 48665"
  },
  {
    "name": "STARLINK-34945",
    "noradId": "65185",
    "line1": "1 65185U 25175M   26175.17944721  .00002449  00000+0  17355-3 0  9993",
    "line2": "2 65185  97.3220  46.3815 0002756  85.5956 274.5587 15.05656558 48663"
  },
  {
    "name": "STARLINK-34965",
    "noradId": "65186",
    "line1": "1 65186U 25175N   26175.17392714  .00004324  00000+0  30342-3 0  9998",
    "line2": "2 65186  97.3205  46.3892 0003054  81.0682 279.0891 15.05650515 48666"
  },
  {
    "name": "STARLINK-34915",
    "noradId": "65187",
    "line1": "1 65187U 25175P   26175.17667686  .00005709  00000+0  39911-3 0  9991",
    "line2": "2 65187  97.3190  46.3839 0002948  81.4255 278.7306 15.05665501 48660"
  },
  {
    "name": "STARLINK-34972",
    "noradId": "65188",
    "line1": "1 65188U 25175Q   26175.17114236  .00000683  00000+0  51267-4 0  9995",
    "line2": "2 65188  97.3230  46.3945 0003176  92.9016 267.2575 15.05660382 48630"
  },
  {
    "name": "STARLINK-34866",
    "noradId": "65189",
    "line1": "1 65189U 25175R   26175.10191944  .00002578  00000+0  18256-3 0  9995",
    "line2": "2 65189  97.3210  46.3336 0003111  85.9968 274.1615 15.05651459 48659"
  },
  {
    "name": "STARLINK-34917",
    "noradId": "65190",
    "line1": "1 65190U 25175S   26175.25002315 -.00053518  00000+0 -37292-2 0  9998",
    "line2": "2 65190  97.3190  46.4809 0002734  86.4460  10.9903 15.05687183  5794"
  },
  {
    "name": "STARLINK-34948",
    "noradId": "65191",
    "line1": "1 65191U 25175T   26175.16283862  .00004207  00000+0  29524-3 0  9996",
    "line2": "2 65191  97.3202  46.4004 0004141  83.7712 276.3987 15.05661181 48663"
  },
  {
    "name": "STARLINK-34955",
    "noradId": "65192",
    "line1": "1 65192U 25175U   26175.16006941 -.00010345  00000+0 -71343-3 0  9996",
    "line2": "2 65192  97.3227  46.4091 0002839  85.0196 275.1355 15.05683722 48638"
  },
  {
    "name": "STARLINK-34950",
    "noradId": "65193",
    "line1": "1 65193U 25175V   26175.15728985 -.00005854  00000+0 -40193-3 0  9993",
    "line2": "2 65193  97.3229  46.4128 0002249  77.2404 282.9075 15.05668840 48631"
  },
  {
    "name": "STARLINK-34926",
    "noradId": "65194",
    "line1": "1 65194U 25175W   26175.14623222  .00001999  00000+0  14244-3 0  9993",
    "line2": "2 65194  97.3214  46.4274 0002348  92.4316 267.7180 15.05649996 48638"
  },
  {
    "name": "STARLINK-34928",
    "noradId": "65195",
    "line1": "1 65195U 25175X   26175.14898851  .00001570  00000+0  11271-3 0  9998",
    "line2": "2 65195  97.3208  46.4244 0002234  76.0840 284.0636 15.05655356 48661"
  },
  {
    "name": "STARLINK-34927",
    "noradId": "65196",
    "line1": "1 65196U 25175Y   26175.15454064  .00000943  00000+0  69300-4 0  9994",
    "line2": "2 65196  97.3225  46.4169 0003177  86.0607 274.0984 15.05646977 48660"
  },
  {
    "name": "STARLINK-34952",
    "noradId": "65197",
    "line1": "1 65197U 25175Z   26175.15175788  .00002287  00000+0  16233-3 0  9997",
    "line2": "2 65197  97.3236  46.4204 0002469  78.2310 281.9194 15.05660875 48663"
  },
  {
    "name": "STARLINK-34981",
    "noradId": "65198",
    "line1": "1 65198U 25176A   26174.98083849  .00018243  00000+0  62587-3 0  9997",
    "line2": "2 65198  53.1608  21.8818 0001240  79.0758 281.0382 15.30234802 49358"
  },
  {
    "name": "STARLINK-34821",
    "noradId": "65199",
    "line1": "1 65199U 25176B   26175.26860440  .00026117  00000+0  78143-3 0  9994",
    "line2": "2 65199  53.1577  15.8787 0001407  81.9904 278.1258 15.34399471 49393"
  },
  {
    "name": "STARLINK-34865",
    "noradId": "65200",
    "line1": "1 65200U 25176C   26175.05855631  .00023212  00000+0  69577-3 0  9994",
    "line2": "2 65200  53.1589  17.4142 0001169  96.0521 264.0615 15.34411094 49420"
  },
  {
    "name": "STARLINK-34843",
    "noradId": "65201",
    "line1": "1 65201U 25176D   26175.28331989  .00026251  00000+0  78418-3 0  9995",
    "line2": "2 65201  53.1604  15.9636 0002026 260.4675  99.6099 15.34446229 49460"
  },
  {
    "name": "STARLINK-34905",
    "noradId": "65202",
    "line1": "1 65202U 25176E   26175.28543152  .00026276  00000+0  78549-3 0  9995",
    "line2": "2 65202  53.1593  15.9788 0000057 198.7509 161.3492 15.34423866 49463"
  },
  {
    "name": "STARLINK-34914",
    "noradId": "65203",
    "line1": "1 65203U 25176F   26175.28122551  .00033547  00000+0  99879-3 0  9990",
    "line2": "2 65203  53.1594  15.9522 0000457 104.0939 256.0115 15.34424491 49461"
  },
  {
    "name": "STARLINK-34787",
    "noradId": "65204",
    "line1": "1 65204U 25176G   26175.26649176  .00066607  00000+0  19605-2 0  9997",
    "line2": "2 65204  53.1576  15.8635 0001556  80.4411 279.6768 15.34473005 49469"
  },
  {
    "name": "STARLINK-34796",
    "noradId": "65205",
    "line1": "1 65205U 25176H   26173.28515543  .00021974  00000+0  65933-3 0  9992",
    "line2": "2 65205  53.1587  25.5399 0000998  81.1842 278.9273 15.34412311 49154"
  },
  {
    "name": "STARLINK-34763",
    "noradId": "65206",
    "line1": "1 65206U 25176J   26174.84421284  .00025018  00000+0  74833-3 0  9996",
    "line2": "2 65206  53.1576  18.2058 0000337  86.0090 274.0951 15.34432719 49389"
  },
  {
    "name": "STARLINK-34901",
    "noradId": "65207",
    "line1": "1 65207U 25176K   26174.85894243  .00021317  00000+0  64023-3 0  9995",
    "line2": "2 65207  53.1597  18.2972 0001361  92.5501 267.5658 15.34399983 49392"
  },
  {
    "name": "STARLINK-34841",
    "noradId": "65208",
    "line1": "1 65208U 25176L   26175.27912704  .00026736  00000+0  79969-3 0  9991",
    "line2": "2 65208  53.1611  15.9461 0001856  85.8779 274.2436 15.34396073 49462"
  },
  {
    "name": "STARLINK-34976",
    "noradId": "65209",
    "line1": "1 65209U 25176M   26174.97237937  .00023573  00000+0  70635-3 0  9993",
    "line2": "2 65209  53.1596  17.5774 0000833  95.1823 264.9275 15.34412455 49413"
  },
  {
    "name": "STARLINK-34941",
    "noradId": "65210",
    "line1": "1 65210U 25176N   26174.98710747  .00021742  00000+0  65251-3 0  9995",
    "line2": "2 65210  53.1608  17.6754 0001138  81.2897 278.8235 15.34411696 49410"
  },
  {
    "name": "STARLINK-34847",
    "noradId": "65211",
    "line1": "1 65211U 25176P   26174.78320432  .00016497  00000+0  56773-3 0  9992",
    "line2": "2 65211  53.1590  19.9487 0000743  22.9344 337.1690 15.30207410 49360"
  },
  {
    "name": "STARLINK-34897",
    "noradId": "65212",
    "line1": "1 65212U 25176Q   26174.83579711  .00029439  00000+0  87894-3 0  9993",
    "line2": "2 65212  53.1599  18.1509 0001117  86.5290 273.5840 15.34401994 49398"
  },
  {
    "name": "STARLINK-34907",
    "noradId": "65213",
    "line1": "1 65213U 25176R   26175.25186175  .00029976  00000+0  89452-3 0  9997",
    "line2": "2 65213  53.1587  16.4791 0001188  80.0487 280.0649 15.34409126 49457"
  },
  {
    "name": "STARLINK-34511",
    "noradId": "65214",
    "line1": "1 65214U 25176S   26174.85473404  .00018761  00000+0  56507-3 0  9992",
    "line2": "2 65214  53.1601  18.2705 0001085  75.4986 284.6137 15.34395929 49332"
  }
]